ONEWEB-0311             
1 49097U 21075Y   25220.61843767  .00000030  00000+0  44298-4 0  9990
2 49097  87.9023  68.0619 0001692  98.7651 261.3673 13.17648899192460
ONEWEB-0312             
1 49098U 21075Z   25220.55769575  .00000023  00000+0  27227-4 0  9993
2 49098  87.9024  68.1057 0001431  91.7620 268.3675 13.17649593192437
ONEWEB-0313             
1 49099U 21075AA  25220.56259942  .00000004  00000+0 -21767-4 0  9990
2 49099  87.9019  68.1184 0001843  90.3036 269.8307 13.17650713192429
ONEWEB-0314             
1 49100U 21075AB  25220.60494856  .00000063  00000+0  12965-3 0  9996
2 49100  87.9030  68.0439 0001457  94.4521 265.6777 13.17650022192408
ONEWEB-0315             
1 49101U 21075AC  25220.56076987 -.00000363  00000+0 -10457-2 0  9991
2 49101  87.8851  52.7864 0001886 100.3439 259.7902 13.12443951194167
ONEWEB-0316             
1 49102U 21075AD  25220.24418150  .00000003  00000+0 -25879-4 0  9995
2 49102  87.9130  37.6256 0001916  97.0556 263.0794 13.18686627195963
ONEWEB-0317             
1 49103U 21075AE  25220.55428412 -.00000304  00000+0 -88094-3 0  9994
2 49103  87.8847  52.8024 0001561  60.5930 299.5355 13.12440843194189
ONEWEB-0318             
1 49104U 21075AF  25220.54438328  .00000009  00000+0 -95391-5 0  9992
2 49104  87.9133  37.5519 0001874  98.3434 261.7911 13.18686992195962
ONEWEB-0319             
1 49105U 21075AG  25220.62012147  .00000097  00000+0  21677-3 0  9999
2 49105  87.9023  68.0863 0001736 100.2622 259.8705 13.17650574192446
ONEWEB-0323             
1 49106U 21075AH  25220.54455743  .00000003  00000+0 -26937-4 0  9997
2 49106  87.8848  52.7901 0001734 112.1721 247.9592 13.12441856193544
ONEWEB-0329             
1 49107U 21075AJ  25220.62856400  .00000105  00000+0  23726-3 0  9996
2 49107  87.9022  68.0893 0001647  92.6961 267.4359 13.17648577192429
ONEWEB-0330             
1 49108U 21075AK  25220.55349822 -.00000004  00000+0 -42641-4 0  9992
2 49108  87.9027  68.1067 0001497  84.4411 275.6891 13.17649664192454
ONEWEB-0292             
1 49186U 21083A   25220.45653744  .00000132  00000+0  32598-3 0  9996
2 49186  87.8980  22.3918 0001848  98.7581 261.3758 13.13469662189870
ONEWEB-0303             
1 49187U 21083B   25220.46520586  .00000056  00000+0  10802-3 0  9994
2 49187  87.9131  37.5682 0001832  97.4895 262.6445 13.18685103188762
ONEWEB-0306             
1 49188U 21083C   25220.45530975  .00000065  00000+0  13327-3 0  9992
2 49188  87.9130  37.5557 0001781  84.4186 275.7149 13.18685300188805
ONEWEB-0307             
1 49189U 21083D   25220.37444166  .00000301  00000+0  78986-3 0  9995
2 49189  87.8965  22.4101 0001523  86.7857 273.3446 13.13470506189869
ONEWEB-0320             
1 49190U 21083E   25220.23427330 -.00000026  00000+0 -98921-4 0  9994
2 49190  87.9129  37.6282 0001798  92.7879 267.3459 13.18686107188730
