[{"OBJECT_NAME":"ONEWEB-0311","OBJECT_ID":"2021-075Y","EPOCH":"2025-08-08T14:50:33.014688","MEAN_MOTION":13.17648899,"ECCENTRICITY":0.0001692,"INCLINATION":87.9023,"RA_OF_ASC_NODE":68.0619,"ARG_OF_PERICENTER":98.7651,"MEAN_ANOMALY":261.3673,"EPHEMERIS_TYPE":0,"CLASSIFICATION_TYPE":"U","NORAD_CAT_ID":49097,"ELEMENT_SET_NO":999,"REV_AT_EPOCH":19246,"BSTAR":4.4298e-5,"MEAN_MOTION_DOT":3.0e-7,"MEAN_MOTION_DDOT":0},{"OBJECT_NAME":"ONEWEB-0312","OBJECT_ID":"2021-075Z","EPOCH":"2025-08-08T13:23:04.912800","MEAN_MOTION":13.17649593,"ECCENTRICITY":0.0001431,"INCLINATION":87.9024,"RA_OF_ASC_NODE":68.1057,"ARG_OF_PERICENTER":91.762,"MEAN_ANOMALY":268.3675,"EPHEMERIS_TYPE":0,"CLASSIFICATION_TYPE":"U","NORAD_CAT_ID":49098,"ELEMENT_SET_NO":999,"REV_AT_EPOCH":19243,"BSTAR":2.7227e-5,"MEAN_MOTION_DOT":2.3e-7,"MEAN_MOTION_DDOT":0},{"OBJECT_NAME":"ONEWEB-0313","OBJECT_ID":"2021-075AA","EPOCH":"2025-08-08T13:30:08.589888","MEAN_MOTION":13.17650713,"ECCENTRICITY":0.0001843,"INCLINATION":87.9019,"RA_OF_ASC_NODE":68.1184,"ARG_OF_PERICENTER":90.3036,"MEAN_ANOMALY":269.8307,"EPHEMERIS_TYPE":0,"CLASSIFICATION_TYPE":"U","NORAD_CAT_ID":49099,"ELEMENT_SET_NO":999,"REV_AT_EPOCH":19242,"BSTAR":-2.1767e-5,"MEAN_MOTION_DOT":4.0e-8,"MEAN_MOTION_DDOT":0},{"OBJECT_NAME":"ONEWEB-0314","OBJECT_ID":"2021-075AB","EPOCH":"2025-08-08T14:31:07.555584","MEAN_MOTION":13.17650022,"ECCENTRICITY":0.0001457,"INCLINATION":87.903,"RA_OF_ASC_NODE":68.0439,"ARG_OF_PERICENTER":94.4521,"MEAN_ANOMALY":265.6777,"EPHEMERIS_TYPE":0,"CLASSIFICATION_TYPE":"U","NORAD_CAT_ID":49100,"ELEMENT_SET_NO":999,"REV_AT_EPOCH":19240,"BSTAR":0.00012965,"MEAN_MOTION_DOT":6.3e-7,"MEAN_MOTION_DDOT":0},{"OBJECT_NAME":"ONEWEB-0315","OBJECT_ID":"2021-075AC","EPOCH":"2025-08-08T13:27:30.516768","MEAN_MOTION":13.12443951,"ECCENTRICITY":0.0001886,"INCLINATION":87.8851,"RA_OF_ASC_NODE":52.7864,"ARG_OF_PERICENTER":100.3439,"MEAN_ANOMALY":259.7902,"EPHEMERIS_TYPE":0,"CLASSIFICATION_TYPE":"U","NORAD_CAT_ID":49101,"ELEMENT_SET_NO":999,"REV_AT_EPOCH":19416,"BSTAR":-0.0010457,"MEAN_MOTION_DOT":-3.63e-6,"MEAN_MOTION_DDOT":0},{"OBJECT_NAME":"ONEWEB-0316","OBJECT_ID":"2021-075AD","EPOCH":"2025-08-08T05:51:37.281600","MEAN_MOTION":13.18686627,"ECCENTRICITY":0.0001916,"INCLINATION":87.913,"RA_OF_ASC_NODE":37.6256,"ARG_OF_PERICENTER":97.0556,"MEAN_ANOMALY":263.0794,"EPHEMERIS_TYPE":0,"CLASSIFICATION_TYPE":"U","NORAD_CAT_ID":49102,"ELEMENT_SET_NO":999,"REV_AT_EPOCH":19596,"BSTAR":-2.5879e-5,"MEAN_MOTION_DOT":3.0e-8,"MEAN_MOTION_DDOT":0},{"OBJECT_NAME":"ONEWEB-0317","OBJECT_ID":"2021-075AE","EPOCH":"2025-08-08T13:18:10.147968","MEAN_MOTION":13.12440843,"ECCENTRICITY":0.0001561,"INCLINATION":87.8847,"RA_OF_ASC_NODE":52.8024,"ARG_OF_PERICENTER":60.593,"MEAN_ANOMALY":299.5355,"EPHEMERIS_TYPE":0,"CLASSIFICATION_TYPE":"U","NORAD_CAT_ID":49103,"ELEMENT_SET_NO":999,"REV_AT_EPOCH":19418,"BSTAR":-0.00088094,"MEAN_MOTION_DOT":-3.04e-6,"MEAN_MOTION_DDOT":0},{"OBJECT_NAME":"ONEWEB-0318","OBJECT_ID":"2021-075AF","EPOCH":"2025-08-08T13:03:54.715392","MEAN_MOTION":13.18686992,"ECCENTRICITY":0.0001874,"INCLINATION":87.9133,"RA_OF_ASC_NODE":37.5519,"ARG_OF_PERICENTER":98.3434,"MEAN_ANOMALY":261.7911,"EPHEMERIS_TYPE":0,"CLASSIFICATION_TYPE":"U","NORAD_CAT_ID":49104,"ELEMENT_SET_NO":999,"REV_AT_EPOCH":19596,"BSTAR":-9.5391e-6,"MEAN_MOTION_DOT":9.0e-8,"MEAN_MOTION_DDOT":0},{"OBJECT_NAME":"ONEWEB-0319","OBJECT_ID":"2021-075AG","EPOCH":"2025-08-08T14:52:58.495008","MEAN_MOTION":13.17650574,"ECCENTRICITY":0.0001736,"INCLINATION":87.9023,"RA_OF_ASC_NODE":68.0863,"ARG_OF_PERICENTER":100.2622,"MEAN_ANOMALY":259.8705,"EPHEMERIS_TYPE":0,"CLASSIFICATION_TYPE":"U","NORAD_CAT_ID":49105,"ELEMENT_SET_NO":999,"REV_AT_EPOCH":19244,"BSTAR":0.00021677,"MEAN_MOTION_DOT":9.7e-7,"MEAN_MOTION_DDOT":0},{"OBJECT_NAME":"ONEWEB-0323","OBJECT_ID":"2021-075AH","EPOCH":"2025-08-08T13:04:09.761952","MEAN_MOTION":13.12441856,"ECCENTRICITY":0.0001734,"INCLINATION":87.8848,"RA_OF_ASC_NODE":52.7901,"ARG_OF_PERICENTER":112.1721,"MEAN_ANOMALY":247.9592,"EPHEMERIS_TYPE":0,"CLASSIFICATION_TYPE":"U","NORAD_CAT_ID":49106,"ELEMENT_SET_NO":999,"REV_AT_EPOCH":19354,"BSTAR":-2.6937e-5,"MEAN_MOTION_DOT":3.0e-8,"MEAN_MOTION_DDOT":0},{"OBJECT_NAME":"ONEWEB-0329","OBJECT_ID":"2021-075AJ","EPOCH":"2025-08-08T15:05:07.929600","MEAN_MOTION":13.17648577,"ECCENTRICITY":0.0001647,"INCLINATION":87.9022,"RA_OF_ASC_NODE":68.0893,"ARG_OF_PERICENTER":92.6961,"MEAN_ANOMALY":267.4359,"EPHEMERIS_TYPE":0,"CLASSIFICATION_TYPE":"U","NORAD_CAT_ID":49107,"ELEMENT_SET_NO":999,"REV_AT_EPOCH":19242,"BSTAR":0.00023726,"MEAN_MOTION_DOT":1.05e-6,"MEAN_MOTION_DDOT":0},{"OBJECT_NAME":"ONEWEB-0330","OBJECT_ID":"2021-075AK","EPOCH":"2025-08-08T13:17:02.246208","MEAN_MOTION":13.17649664,"ECCENTRICITY":0.0001497,"INCLINATION":87.9027,"RA_OF_ASC_NODE":68.1067,"ARG_OF_PERICENTER":84.4411,"MEAN_ANOMALY":275.6891,"EPHEMERIS_TYPE":0,"CLASSIFICATION_TYPE":"U","NORAD_CAT_ID":49108,"ELEMENT_SET_NO":999,"REV_AT_EPOCH":19245,"BSTAR":-4.2641e-5,"MEAN_MOTION_DOT":-4.0e-8,"MEAN_MOTION_DDOT":0},{"OBJECT_NAME":"ONEWEB-0292","OBJECT_ID":"2021-083A","EPOCH":"2025-08-08T10:57:24.834816","MEAN_MOTION":13.13469662,"ECCENTRICITY":0.0001848,"INCLINATION":87.898,"RA_OF_ASC_NODE":22.3918,"ARG_OF_PERICENTER":98.7581,"MEAN_ANOMALY":261.3758,"EPHEMERIS_TYPE":0,"CLASSIFICATION_TYPE":"U","NORAD_CAT_ID":49186,"ELEMENT_SET_NO":999,"REV_AT_EPOCH":18987,"BSTAR":0.00032598,"MEAN_MOTION_DOT":1.32e-6,"MEAN_MOTION_DDOT":0},{"OBJECT_NAME":"ONEWEB-0303","OBJECT_ID":"2021-083B","EPOCH":"2025-08-08T11:09:53.786304","MEAN_MOTION":13.18685103,"ECCENTRICITY":0.0001832,"INCLINATION":87.9131,"RA_OF_ASC_NODE":37.5682,"ARG_OF_PERICENTER":97.4895,"MEAN_ANOMALY":262.6445,"EPHEMERIS_TYPE":0,"CLASSIFICATION_TYPE":"U","NORAD_CAT_ID":49187,"ELEMENT_SET_NO":999,"REV_AT_EPOCH":18876,"BSTAR":0.00010802,"MEAN_MOTION_DOT":5.6e-7,"MEAN_MOTION_DDOT":0},{"OBJECT_NAME":"ONEWEB-0306","OBJECT_ID":"2021-083C","EPOCH":"2025-08-08T10:55:38.762400","MEAN_MOTION":13.186853,"ECCENTRICITY":0.0001781,"INCLINATION":87.913,"RA_OF_ASC_NODE":37.5557,"ARG_OF_PERICENTER":84.4186,"MEAN_ANOMALY":275.7149,"EPHEMERIS_TYPE":0,"CLASSIFICATION_TYPE":"U","NORAD_CAT_ID":49188,"ELEMENT_SET_NO":999,"REV_AT_EPOCH":18880,"BSTAR":0.00013327,"MEAN_MOTION_DOT":6.5e-7,"MEAN_MOTION_DDOT":0},{"OBJECT_NAME":"ONEWEB-0307","OBJECT_ID":"2021-083D","EPOCH":"2025-08-08T08:59:11.759424","MEAN_MOTION":13.13470506,"ECCENTRICITY":0.0001523,"INCLINATION":87.8965,"RA_OF_ASC_NODE":22.4101,"ARG_OF_PERICENTER":86.7857,"MEAN_ANOMALY":273.3446,"EPHEMERIS_TYPE":0,"CLASSIFICATION_TYPE":"U","NORAD_CAT_ID":49189,"ELEMENT_SET_NO":999,"REV_AT_EPOCH":18986,"BSTAR":0.00078986,"MEAN_MOTION_DOT":3.01e-6,"MEAN_MOTION_DDOT":0},{"OBJECT_NAME":"ONEWEB-0320","OBJECT_ID":"2021-083E","EPOCH":"2025-08-08T05:37:21.213120","MEAN_MOTION":13.18686107,"ECCENTRICITY":0.0001798,"INCLINATION":87.9129,"RA_OF_ASC_NODE":37.6282,"ARG_OF_PERICENTER":92.7879,"MEAN_ANOMALY":267.3459,"EPHEMERIS_TYPE":0,"CLASSIFICATION_TYPE":"U","NORAD_CAT_ID":49190,"ELEMENT_SET_NO":999,"REV_AT_EPOCH":18873,"BSTAR":-9.8921e-5,"MEAN_MOTION_DOT":-2.6e-7,"MEAN_MOTION_DDOT":0}]
